NORAD_CAT_ID,OBJECT_NAME,OBJECT_TYPE,EPOCH,MEAN_MOTION,ECCENTRICITY,INCLINATION,RA_OF_ASC_NODE,ARG_OF_PERICENTER,MEAN_ANOMALY,BSTAR,MEAN_MOTION_DOT,MEAN_MOTION_DDOT,TLE_LINE0,TLE_LINE1,TLE_LINE2,SEMIMAJOR_AXIS,PERIOD,APOGEE,PERIGEE,DECAYED
56777.0,STARLINK-5582,PAYLOAD,2024-04-08 07:12:20,14.98330316,0.0002842,69.9987,310.5902,268.082,92.0014,1.9265e-05,1.37e-06,0.0,0 STARLINK-5582,1 56777U 23078L   24099.30024065  .00000137  00000-0  19265-4 0  9994,2 56777  69.9987 310.5902 0002842 268.0820  92.0014 14.98330316 47762,6950.192,96.107,574.032,570.082,0.0
56777.0,STARLINK-5582,PAYLOAD,2024-04-08 23:13:41,14.98332927,0.0002883,69.999,308.9062,268.6923,91.3906,7.0972e-05,7.54e-06,0.0,0 STARLINK-5582,1 56777U 23078L   24099.96783680  .00000754  00000-0  70972-4 0  9998,2 56777  69.9990 308.9062 0002883 268.6923  91.3906 14.98332927 47862,6950.184,96.107,574.053,570.045,0.0
56777.0,STARLINK-5582,PAYLOAD,2024-04-09 07:14:21,14.98328917,0.0002841,69.999,308.0644,268.7194,91.3639,2.2682e-05,1.78e-06,0.0,0 STARLINK-5582,1 56777U 23078L   24100.30164053  .00000178  00000-0  22682-4 0  9991,2 56777  69.9990 308.0644 0002841 268.7194  91.3639 14.98328917 48176,6950.196,96.107,574.036,570.087,0.0
56777.0,STARLINK-5582,PAYLOAD,2024-04-10 07:16:22,14.98330304,0.0002875,69.9985,305.5388,268.3924,91.6906,5.4006e-05,5.51e-06,0.0,0 STARLINK-5582,1 56777U 23078L   24101.30303980  .00000551  00000-0  54006-4 0  9996,2 56777  69.9985 305.5388 0002875 268.3924  91.6906 14.98330304 48321,6950.192,96.107,574.055,570.059,0.0
56777.0,STARLINK-5582,PAYLOAD,2024-04-10 13:40:54,14.98334167,0.0002893,69.9985,304.8655,268.8633,91.2194,5.319e-05,5.42e-06,0.0,0 STARLINK-5582,1 56777U 23078L   24101.57007686  .00000542  00000-0  53190-4 0  9992,2 56777  69.9985 304.8655 0002893 268.8633  91.2194 14.98334167 48104,6950.18,96.107,574.056,570.034,0.0
56777.0,STARLINK-5582,PAYLOAD,2024-04-10 21:41:34,14.98332956,0.0002904,69.9985,304.0236,268.6247,91.458,5.8081e-05,6e-06,0.0,0 STARLINK-5582,1 56777U 23078L   24101.90387688  .00000600  00000-0  58081-4 0  9991,2 56777  69.9985 304.0236 0002904 268.6247  91.4580 14.98332956 48153,6950.184,96.107,574.067,570.03,0.0
56777.0,STARLINK-5582,PAYLOAD,2024-04-11 07:18:23,14.98329421,0.0002952,69.9983,303.0136,268.8292,91.2529,4.7954e-05,4.79e-06,0.0,0 STARLINK-5582,1 56777U 23078L   24102.30443888  .00000479  00000-0  47954-4 0  9992,2 56777  69.9983 303.0136 0002952 268.8292  91.2529 14.98329421 48473,6950.195,96.107,574.111,570.008,0.0
56777.0,STARLINK-5582,PAYLOAD,2024-04-11 13:42:55,14.9832952,0.0002949,69.998,302.3403,268.678,91.4041,5.0147e-05,5.05e-06,0.0,0 STARLINK-5582,1 56777U 23078L   24102.57147903  .00000505  00000-0  50147-4 0  9998,2 56777  69.9980 302.3403 0002949 268.6780  91.4041 14.98329520 48252,6950.194,96.107,574.109,570.01,0.0
56777.0,STARLINK-5582,PAYLOAD,2024-04-11 21:43:36,14.98329026,0.0003031,69.9984,301.4989,269.4245,90.6567,1.7965e-05,1.21e-06,0.0,0 STARLINK-5582,1 56777U 23078L   24102.90528026  .00000121  00000-0  17965-4 0  9999,2 56777  69.9984 301.4989 0003031 269.4245  90.6567 14.98329026 48304,6950.196,96.107,574.168,569.954,0.0
56777.0,STARLINK-5582,PAYLOAD,2024-04-12 13:44:56,14.98332829,0.0003026,69.9984,299.8155,269.4596,90.6216,3.4342e-05,3.17e-06,0.0,0 STARLINK-5582,1 56777U 23078L   24103.57287753  .00000317  00000-0  34342-4 0  9997,2 56777  69.9984 299.8155 0003026 269.4596  90.6216 14.98332829 48409,6950.184,96.107,574.152,569.946,0.0
56777.0,STARLINK-5582,PAYLOAD,2024-04-12 15:21:04,14.98332904,0.0003028,69.9984,299.6472,269.4671,90.6141,3.4754e-05,3.22e-06,0.0,0 STARLINK-5582,1 56777U 23078L   24103.63963736  .00000322  00000-0  34754-4 0  9999,2 56777  69.9984 299.6472 0003028 269.4671  90.6141 14.98332904 48675,6950.184,96.107,574.153,569.944,0.0
56777.0,STARLINK-5582,PAYLOAD,2024-04-12 21:45:36,14.98334392,0.0003029,69.9984,298.9738,269.7745,90.3067,4.3294e-05,4.24e-06,0.0,0 STARLINK-5582,1 56777U 23078L   24103.90667564  .00000424  00000-0  43294-4 0  9991,2 56777  69.9984 298.9738 0003029 269.7745  90.3067 14.98334392 48451,6950.179,96.107,574.15,569.939,0.0
56777.0,STARLINK-5582,PAYLOAD,2024-04-13 13:46:57,14.98328136,0.0002999,69.9986,297.2905,271.0071,89.0744,4.9139e-05,4.93e-06,0.0,0 STARLINK-5582,1 56777U 23078L   24104.57427961  .00000493  00000-0  49139-4 0  9990,2 56777  69.9986 297.2905 0002999 271.0071  89.0744 14.98328136 48551,6950.199,96.107,574.148,569.979,0.0
56777.0,STARLINK-5582,PAYLOAD,2024-04-13 20:11:29,14.98327679,0.0003081,69.9986,296.617,268.0179,92.0627,8.5173e-05,9.23e-06,0.0,0 STARLINK-5582,1 56777U 23078L   24104.84131926  .00000923  00000-0  85173-4 0  9999,2 56777  69.9986 296.6170 0003081 268.0179  92.0627 14.98327679 48854,6950.2,96.107,574.206,569.924,0.0
56777.0,STARLINK-5582,PAYLOAD,2024-04-13 21:47:38,14.98327662,0.0002923,69.9988,296.4494,265.3553,94.7272,8.9983e-05,9.81e-06,0.0,0 STARLINK-5582,1 56777U 23078L   24104.90807924  .00000981  00000-0  89983-4 0  9991,2 56777  69.9988 296.4494 0002923 265.3553  94.7272 14.98327662 48603,6950.2,96.107,574.097,570.034,0.0
56777.0,STARLINK-5582,PAYLOAD,2024-04-14 20:13:30,14.98333291,0.000284,69.999,294.0924,263.9012,96.1824,8.9109e-05,9.7e-06,0.0,0 STARLINK-5582,1 56777U 23078L   24105.84271614  .00000970  00000-0  89109-4 0  9994,2 56777  69.9990 294.0924 0002840 263.9012  96.1824 14.98333291 49009,6950.183,96.107,574.022,570.074,0.0
56777.0,STARLINK-5582,PAYLOAD,2024-04-14 21:49:38,14.98335074,0.000284,69.999,293.9243,265.5579,94.5255,8.4346e-05,9.14e-06,0.0,0 STARLINK-5582,1 56777U 23078L   24105.90947470  .00000914  00000-0  84346-4 0  9997,2 56777  69.9990 293.9243 0002840 265.5579  94.5255 14.98335074 48759,6950.177,96.107,574.016,570.068,0.0
56777.0,STARLINK-5582,PAYLOAD,2024-04-15 13:50:59,14.98329844,0.0002775,69.9997,292.242,260.8514,99.2331,0.00010948,1.214e-05,0.0,0 STARLINK-5582,1 56777U 23078L   24106.57707710  .00001214  00000-0  10948-3 0  9992,2 56777  69.9997 292.2420 0002775 260.8514  99.2331 14.98329844 48855,6950.193,96.107,573.987,570.13,0.0
56777.0,STARLINK-5582,PAYLOAD,2024-04-15 20:15:31,14.98329376,0.000294,69.9994,291.5682,265.6004,94.4819,7.5504e-05,8.08e-06,0.0,0 STARLINK-5582,1 56777U 23078L   24106.84411858  .00000808  00000-0  75504-4 0  9995,2 56777  69.9994 291.5682 0002940 265.6004  94.4819 14.98329376 49157,6950.195,96.107,574.103,570.016,0.0
56777.0,STARLINK-5582,PAYLOAD,2024-04-15 21:51:39,14.98331917,0.0003032,69.9992,291.3984,267.6209,92.4603,5.4345e-05,5.56e-06,0.0,0 STARLINK-5582,1 56777U 23078L   24106.91087723  .00000556  00000-0  54345-4 0  9993,2 56777  69.9992 291.3984 0003032 267.6209  92.4603 14.98331917 48905,6950.187,96.107,574.159,569.945,0.0
56777.0,STARLINK-5582,PAYLOAD,2024-04-16 13:53:00,14.98336082,0.0003128,69.9993,289.714,269.4772,90.6028,5.8319e-05,6.03e-06,0.0,0 STARLINK-5582,1 56777U 23078L   24107.57847416  .00000603  00000-0  58319-4 0  9997,2 56777  69.9993 289.7140 0003128 269.4772  90.6028 14.98336082 49003,6950.174,96.107,574.213,569.865,0.0
56777.0,STARLINK-5582,PAYLOAD,2024-04-16 20:17:32,14.98339612,0.0003055,69.9982,289.0407,268.3765,91.7044,0.00012284,1.373e-05,0.0,0 STARLINK-5582,1 56777U 23078L   24107.84550945  .00001373  00000-0  12284-3 0  9990,2 56777  69.9982 289.0407 0003055 268.3765  91.7044 14.98339612 49304,6950.163,96.106,574.151,569.905,0.0
56777.0,STARLINK-5582,PAYLOAD,2024-04-16 21:53:39,14.98341294,0.0003052,69.9983,288.8724,268.407,91.6739,0.00014599,1.65e-05,0.0,0 STARLINK-5582,1 56777U 23078L   24107.91226769  .00001650  00000-0  14599-3 0  9991,2 56777  69.9983 288.8724 0003052 268.4070  91.6739 14.98341294 49052,6950.158,96.106,574.144,569.902,0.0
56777.0,STARLINK-5582,PAYLOAD,2024-04-17 12:18:53,14.98330718,0.0002828,69.9989,287.3573,269.9394,90.1441,8.3206e-05,9e-06,0.0,0 STARLINK-5582,1 56777U 23078L   24108.51311499  .00000900  00000-0  83206-4 0  9992,2 56777  69.9989 287.3573 0002828 269.9394  90.1441 14.98330718 49401,6950.191,96.107,574.021,570.09,0.0
56777.0,STARLINK-5582,PAYLOAD,2024-04-17 13:55:01,14.98329814,0.0002799,69.9987,287.189,270.3932,89.6906,5.0265e-05,5.07e-06,0.0,0 STARLINK-5582,1 56777U 23078L   24108.57987626  .00000507  00000-0  50265-4 0  9991,2 56777  69.9987 287.1890 0002799 270.3932  89.6906 14.98329814 49156,6950.193,96.107,574.004,570.113,0.0
56777.0,STARLINK-5582,PAYLOAD,2024-04-17 21:55:41,14.98329484,0.0002898,69.9989,286.3478,270.5666,89.5161,3.5088e-05,3.26e-06,0.0,0 STARLINK-5582,1 56777U 23078L   24108.91367649  .00000326  00000-0  35088-4 0  9991,2 56777  69.9989 286.3478 0002898 270.5666  89.5161 14.98329484 49208,6950.194,96.107,574.074,570.045,0.0
56777.0,STARLINK-5582,PAYLOAD,2024-04-18 12:20:49,14.98396418,0.0002122,69.9988,284.8323,253.0853,107.0074,0.00074277,8.796e-05,0.0,0 STARLINK-5582,1 56777U 23078L   24109.51446272  .00008796  00000-0  74277-3 0  9999,2 56777  69.9988 284.8323 0002122 253.0853 107.0074 14.98396418 49551,6949.988,96.103,573.327,570.378,0.0
56777.0,STARLINK-5582,PAYLOAD,2024-04-18 20:21:33,14.98332724,0.0002941,69.9991,283.9923,248.6846,111.3999,-3.7386e-05,-5.39e-06,0.0,0 STARLINK-5582,1 56777U 23078L   24109.84830636 -.00000539  00000-0 -37386-4 0  9996,2 56777  69.9991 283.9923 0002941 248.6846 111.3999 14.98332724 49602,6950.184,96.107,574.094,570.005,0.0
56777.0,STARLINK-5582,PAYLOAD,2024-04-18 21:57:42,14.98328787,0.0002904,69.9992,283.8241,267.6953,92.3873,-7.5524e-05,-9.94e-06,0.0,0 STARLINK-5582,1 56777U 23078L   24109.91507059 -.00000994  00000-0 -75524-4 0  9995,2 56777  69.9992 283.8241 0002904 267.6953  92.3873 14.98328787 49359,6950.197,96.107,574.08,570.043,0.0
56777.0,STARLINK-5582,PAYLOAD,2024-04-19 12:22:53,14.98329176,0.0002748,70.0003,282.3165,271.8282,88.2562,0.00043129,5.057e-05,0.0,0 STARLINK-5582,1 56777U 23078L   24110.51589542  .00005057  00000-0  43129-3 0  9998,2 56777  70.0003 282.3165 0002748 271.8282  88.2562 14.98329176 49703,6950.195,96.107,573.97,570.151,0.0
